KUIPER-00053            
1 64513U 25134P   25249.24187115  .00073783  00000+0  19535-2 0  9997
2 64513  51.8782 329.7409 0003674 356.3798   3.7162 15.37696760 12740
KUIPER-00054            
1 64514U 25134Q   25249.24925547  .00056692  00000+0  15022-2 0  9994
2 64514  51.8765 329.7840 0005230  25.1997 334.9245 15.37784008 12747
KUIPER-00055            
1 64515U 25134R   25248.95921536  .00044009  00000+0  11524-2 0  9998
2 64515  51.8801 330.8543 0002360   1.0979 359.0013 15.38271891 12705
KUIPER-00056            
1 64516U 25134S   25249.19711915  .00062992  00000+0  17407-2 0  9991
2 64516  51.8757 330.1720 0007258  32.9582 327.1855 15.36424200 12735
KUIPER-00057            
1 64517U 25134T   25249.25002315 -.00720953  00000+0 -36677-1 0  9995
2 64517  51.8782 331.6168 0012034  14.2522 144.2508 15.18708408  4752
KUIPER-00058            
1 64518U 25134U   25249.25002315 -.00630002  00000+0 -21684-1 0  9993
2 64518  51.8770 330.2194 0007559  26.6800 122.7225 15.31755230  5181
KUIPER-00059            
1 64519U 25134V   25249.22239252  .00073481  00000+0  19077-2 0  9997
2 64519  51.8794 329.6136 0003306   5.4448 354.6575 15.38303905 12744
KUIPER-00060            
1 64520U 25134W   25249.23080710  .00057314  00000+0  14989-2 0  9997
2 64520  51.8788 329.6694 0003728 351.2872   8.8050 15.38189839 12732
